{
  "type": "FeatureCollection",
  "features": [
    {
      "type": "Feature",
      "properties": {
        "name": "Parroquia Unare - área de estudio",
        "source": "1mapa.py / 2preparar-grafo.py"
      },
      "geometry": {
        "type": "Polygon",
        "coordinates": [
          [
            [-62.745336433188456, 8.286218590992732],
            [-62.74639821048953, 8.289849353383403],
            [-62.758853747446125, 8.286409161961359],
            [-62.775944263325385, 8.279436918649068],
            [-62.781931600346425, 8.277812135647395],
            [-62.78550719687766, 8.276379250422451],
            [-62.788498421441545, 8.272173692133876],
            [-62.796922121089125, 8.264330667336665],
            [-62.80688900033687, 8.254090569436485],
            [-62.80331343060605, 8.250070971262915],
            [-62.798755309860766, 8.246351669201246],
            [-62.79710804920802, 8.242339574986502],
            [-62.78735590300761, 8.246824138332173],
            [-62.784751188098, 8.24968630863485],
            [-62.77730312870703, 8.259833944369149],
            [-62.77111677636016, 8.263373975532858],
            [-62.74222210285113, 8.269687137235053],
            [-62.745336433188456, 8.286218590992732]
          ]
        ]
      }
    }
  ]
}
